{
  "norad_id": 66893,
  "name": "STARLINK-36033",
  "history": [
    {
      "epoch": "2026-03-28T20:36:05.382432Z",
      "apogee_km": 475.92572231400027,
      "perigee_km": 474.56176247864823,
      "latitude_deg": -3.273626704203627e-05,
      "longitude_deg": 160.21413955784647,
      "height_km": 476.0922998578596,
      "semi_major_axis_km": 6853.3807423963235,
      "eccentricity": 9.951e-05,
      "inclination_deg": 53.1582,
      "raan_deg": 295.5094,
      "arg_perigee_deg": 85.8207,
      "mean_anomaly_deg": 274.2907,
      "mean_motion_rev_day": 15.30190397
    }
  ]
}